KUIPER-00167            
1 65780U 25217U   26007.83335648  .00019253  00000+0  25566-2 0  9993
2 65780  51.8973 314.6937 0000753 126.0823  39.0509 14.79777917  3919
KUIPER-00168            
1 65781U 25217V   26007.83335648 -.00031450  00000+0 -19175-2 0  9998
2 65781  51.8891 299.5042 0001033 121.4580 187.8997 15.09728628  3369
KUIPER-00169            
1 65782U 25217W   26007.83335648  .00005808  00000+0  57099-3 0  9993
2 65782  51.8936 302.7868 0004607 105.3884  39.3061 14.93367472  4172
KUIPER-00170            
1 65783U 25217X   26007.83335648 -.00009573  00000+0 -11247-2 0  9993
2 65783  51.8988 307.2967 0003061 105.9110 327.9975 14.83572734  5147
KUIPER-00171            
1 65784U 25217Y   26007.83335648  .00006798  00000+0  47508-4 0  9999
2 65784  51.8523 283.1814 0011019 122.7244 115.0175 15.75658074  5415
KUIPER-00172            
1 65785U 25217Z   26007.52752402  .00019965  00000+0  91453-3 0  9994
2 65785  51.8760 301.6875 0005416 123.9393 236.2102 15.20459571 15984
KUIPER-00173            
1 65786U 25217AA  26007.83335648 -.00004346  00000+0 -39039-3 0  9999
2 65786  51.8933 302.8529 0000960 166.1740 156.4797 14.92999176  4169
KUIPER-00174            
1 65787U 25217AB  26007.83335648 -.00020268  00000+0 -12554-2 0  9993
2 65787  51.8835 299.6752 0001587 196.0022 294.4307 15.08910922  5748
